{
  "type": "FeatureCollection",
  "features": [
    {
      "type": "Feature",
      "properties": {
        "norad_id": 37280,
        "name": "COSMOS 2251 DEB",
        "group": "cosmos-2251-debris",
        "lat": -72.2851191614315,
        "lon": -9.727635570659839,
        "alt_km": 842.5866383386574,
        "timestamp": "2025-12-14T11:29:50.457961+00:00",
        "meta_object_name": "COSMOS 2251 DEB",
        "meta_object_id": "1993-036BHU",
        "meta_epoch": "2025-12-11T21:18:02.152224",
        "meta_mean_motion": 14.19307625,
        "meta_eccentricity": 0.0131129,
        "meta_inclination": 74.0314,
        "meta_ra_of_asc_node": 58.592,
        "meta_arg_of_pericenter": 187.3743,
        "meta_mean_anomaly": 172.5477,
        "meta_ephemeris_type": 0,
        "meta_classification_type": "U",
        "meta_norad_cat_id": 37280,
        "meta_element_set_no": 999,
        "meta_rev_at_epoch": 57311,
        "meta_bstar": 0.0026008,
        "meta_mean_motion_dot": 5.928e-05,
        "meta_mean_motion_ddot": 0,
        "tle_line1": "1 37280U 93036BHU 25345.88752491  .00005928  00000+0  26008-2 0  9995",
        "tle_line2": "2 37280  74.0314  58.5920 0131129 187.3743 172.5477 14.19307625573118"
      },
      "geometry": {
        "type": "Point",
        "coordinates": [
          -9.727635570659839,
          -72.2851191614315
        ]
      }
    },
    {
      "type": "Feature",
      "properties": {
        "norad_id": 37284,
        "name": "COSMOS 2251 DEB",
        "group": "cosmos-2251-debris",
        "lat": -49.99894638680169,
        "lon": -6.374134751169601,
        "alt_km": 819.6548006823832,
        "timestamp": "2025-12-14T11:29:50.457982+00:00",
        "meta_object_name": "COSMOS 2251 DEB",
        "meta_object_id": "1993-036BHY",
        "meta_epoch": "2025-12-10T18:04:20.469216",
        "meta_mean_motion": 14.12686618,
        "meta_eccentricity": 0.01605026,
        "meta_inclination": 74.0123,
        "meta_ra_of_asc_node": 160.2425,
        "meta_arg_of_pericenter": 312.4867,
        "meta_mean_anomaly": 59.8736,
        "meta_ephemeris_type": 0,
        "meta_classification_type": "U",
        "meta_norad_cat_id": 37284,
        "meta_element_set_no": 999,
        "meta_rev_at_epoch": 59147,
        "meta_bstar": 0.001592138,
        "meta_mean_motion_dot": 3.31e-05,
        "meta_mean_motion_ddot": 0,
        "tle_line1": "1 37284U 93036BHY 25344.75301469  .00003310  00000+0  15921-2 0  9994",
        "tle_line2": "2 37284  74.0123 160.2425 0160502 312.4867  59.8736 14.12686618591475"
      },
      "geometry": {
        "type": "Point",
        "coordinates": [
          -6.374134751169601,
          -49.99894638680169
        ]
      }
    },
    {
      "type": "Feature",
      "properties": {
        "norad_id": 37292,
        "name": "COSMOS 2251 DEB",
        "group": "cosmos-2251-debris",
        "lat": -60.23578356495271,
        "lon": 16.930726530986554,
        "alt_km": 948.3198104853791,
        "timestamp": "2025-12-14T11:29:50.457994+00:00",
        "meta_object_name": "COSMOS 2251 DEB",
        "meta_object_id": "1993-036BJG",
        "meta_epoch": "2025-12-02T14:04:30.366912",
        "meta_mean_motion": 14.03226454,
        "meta_eccentricity": 0.02102512,
        "meta_inclination": 74.129,
        "meta_ra_of_asc_node": 67.3453,
        "meta_arg_of_pericenter": 73.1105,
        "meta_mean_anomaly": 289.2966,
        "meta_ephemeris_type": 0,
        "meta_classification_type": "U",
        "meta_norad_cat_id": 37292,
        "meta_element_set_no": 999,
        "meta_rev_at_epoch": 59706,
        "meta_bstar": 0.0022453288,
        "meta_mean_motion_dot": 4.236e-05,
        "meta_mean_motion_ddot": 0,
        "tle_line1": "1 37292U 93036BJG 25336.58646258  .00004236  00000+0  22453-2 0  9999",
        "tle_line2": "2 37292  74.1290  67.3453 0210251  73.1105 289.2966 14.03226454597064"
      },
      "geometry": {
        "type": "Point",
        "coordinates": [
          16.930726530986554,
          -60.23578356495271
        ]
      }
    },
    {
      "type": "Feature",
      "properties": {
        "norad_id": 37295,
        "name": "COSMOS 2251 DEB",
        "group": "cosmos-2251-debris",
        "lat": -56.51870959385964,
        "lon": 123.97007199728391,
        "alt_km": 707.645638001788,
        "timestamp": "2025-12-14T11:29:50.458005+00:00",
        "meta_object_name": "COSMOS 2251 DEB",
        "meta_object_id": "1993-036BJK",
        "meta_epoch": "2025-12-13T13:06:23.160960",
        "meta_mean_motion": 14.65245888,
        "meta_eccentricity": 0.00438082,
        "meta_inclination": 74.0063,
        "meta_ra_of_asc_node": 280.069,
        "meta_arg_of_pericenter": 99.0616,
        "meta_mean_anomaly": 261.5513,
        "meta_ephemeris_type": 0,
        "meta_classification_type": "U",
        "meta_norad_cat_id": 37295,
        "meta_element_set_no": 999,
        "meta_rev_at_epoch": 82316,
        "meta_bstar": 0.00074329586,
        "meta_mean_motion_dot": 4.033e-05,
        "meta_mean_motion_ddot": 0,
        "tle_line1": "1 37295U 93036BJK 25347.54610140  .00004033  00000+0  74330-3 0  9998",
        "tle_line2": "2 37295  74.0063 280.0690 0043808  99.0616 261.5513 14.65245888823161"
      },
      "geometry": {
        "type": "Point",
        "coordinates": [
          123.97007199728391,
          -56.51870959385964
        ]
      }
    },
    {
      "type": "Feature",
      "properties": {
        "norad_id": 37305,
        "name": "COSMOS 2251 DEB",
        "group": "cosmos-2251-debris",
        "lat": -18.562705736513532,
        "lon": 112.86698206824144,
        "alt_km": 751.9672749393003,
        "timestamp": "2025-12-14T11:29:50.458015+00:00",
        "meta_object_name": "COSMOS 2251 DEB",
        "meta_object_id": "1993-036BJV",
        "meta_epoch": "2025-12-13T12:50:04.816608",
        "meta_mean_motion": 14.36140847,
        "meta_eccentricity": 0.00500253,
        "meta_inclination": 73.8697,
        "meta_ra_of_asc_node": 289.0409,
        "meta_arg_of_pericenter": 249.3262,
        "meta_mean_anomaly": 110.2523,
        "meta_ephemeris_type": 0,
        "meta_classification_type": "U",
        "meta_norad_cat_id": 37305,
        "meta_element_set_no": 999,
        "meta_rev_at_epoch": 66878,
        "meta_bstar": 0.00092453159,
        "meta_mean_motion_dot": 2.706e-05,
        "meta_mean_motion_ddot": 0,
        "tle_line1": "1 37305U 93036BJV 25347.53477797  .00002706  00000+0  92453-3 0  9999",
        "tle_line2": "2 37305  73.8697 289.0409 0050025 249.3262 110.2523 14.36140847668789"
      },
      "geometry": {
        "type": "Point",
        "coordinates": [
          112.86698206824144,
          -18.562705736513532
        ]
      }
    },
    {
      "type": "Feature",
      "properties": {
        "norad_id": 37312,
        "name": "COSMOS 2251 DEB",
        "group": "cosmos-2251-debris",
        "lat": -52.38589459070852,
        "lon": 179.12087898549927,
        "alt_km": 731.9197224097197,
        "timestamp": "2025-12-14T11:29:50.458025+00:00",
        "meta_object_name": "COSMOS 2251 DEB",
        "meta_object_id": "1993-036BKC",
        "meta_epoch": "2025-12-09T00:35:23.995392",
        "meta_mean_motion": 14.46107555,
        "meta_eccentricity": 0.00182852,
        "meta_inclination": 74.0311,
        "meta_ra_of_asc_node": 211.115,
        "meta_arg_of_pericenter": 314.7028,
        "meta_mean_anomaly": 45.264,
        "meta_ephemeris_type": 0,
        "meta_classification_type": "U",
        "meta_norad_cat_id": 37312,
        "meta_element_set_no": 999,
        "meta_rev_at_epoch": 86110,
        "meta_bstar": 0.00057614872,
        "meta_mean_motion_dot": 2.035e-05,
        "meta_mean_motion_ddot": 0,
        "tle_line1": "1 37312U 93036BKC 25343.02458328  .00002035  00000+0  57615-3 0  9992",
        "tle_line2": "2 37312  74.0311 211.1150 0018285 314.7028  45.2640 14.46107555861109"
      },
      "geometry": {
        "type": "Point",
        "coordinates": [
          179.12087898549927,
          -52.38589459070852
        ]
      }
    },
    {
      "type": "Feature",
      "properties": {
        "norad_id": 37316,
        "name": "COSMOS 2251 DEB",
        "group": "cosmos-2251-debris",
        "lat": 73.53832652263036,
        "lon": 93.4420183388233,
        "alt_km": 555.8156081301395,
        "timestamp": "2025-12-14T11:29:50.458036+00:00",
        "meta_object_name": "COSMOS 2251 DEB",
        "meta_object_id": "1993-036BKG",
        "meta_epoch": "2025-12-12T12:31:34.871232",
        "meta_mean_motion": 14.94485363,
        "meta_eccentricity": 0.0029307,
        "meta_inclination": 74.0203,
        "meta_ra_of_asc_node": 21.5089,
        "meta_arg_of_pericenter": 89.6992,
        "meta_mean_anomaly": 270.755,
        "meta_ephemeris_type": 0,
        "meta_classification_type": "U",
        "meta_norad_cat_id": 37316,
        "meta_element_set_no": 999,
        "meta_rev_at_epoch": 86140,
        "meta_bstar": 0.0028276502,
        "meta_mean_motion_dot": 0.00030882,
        "meta_mean_motion_ddot": 0,
        "tle_line1": "1 37316U 93036BKG 25346.52193138  .00030882  00000+0  28277-2 0  9991",
        "tle_line2": "2 37316  74.0203  21.5089 0029307  89.6992 270.7550 14.94485363861409"
      },
      "geometry": {
        "type": "Point",
        "coordinates": [
          93.4420183388233,
          73.53832652263036
        ]
      }
    }
  ]
}